IRIDIUM 57              
1 25273U 98019B   24122.29449603  .00000581  00000+0  19660-3 0  9992
2 25273  86.3931 317.7782 0002161  88.2053 271.9390 14.35177420365696
IRIDIUM 63              
1 25286U 98021B   24122.61489317  .00000731  00000+0  24650-3 0  9993
2 25286  86.3975 254.5139 0002170  98.7453 261.3989 14.35720802364775
IRIDIUM 69              
1 25319U 98026A   24122.82004890  .00000924  00000+0  28760-3 0  9997
2 25319  86.3947 268.9634 0001029   4.7407 355.3802 14.39936418364086
IRIDIUM 71              
1 25320U 98026B   24122.62179604  .00000802  00000+0  24726-3 0  9996
2 25320  86.3952 263.8143 0003038  48.6804 311.4656 14.40255646364330
IRIDIUM 73              
1 25344U 98032C   24122.52980952  .00000934  00000+0  23388-3 0  9993
2 25344  86.4469 221.3538 0001708  85.5544 274.5856 14.50474242370862
IRIDIUM 82              
1 25467U 98051A   24122.01068112  .00012095  00000+0  62424-3 0  9994
2 25467  86.3712 308.1448 0131573  34.8433 326.1328 15.08863519361377
IRIDIUM 2               
1 25527U 98066A   24122.82642880  .00122172  00000+0  94943-3 0  9995
2 25527  85.5058 333.3858 0004115 128.9889 231.1748 15.71391329400116
